{
  "type": "FeatureCollection",
  "features": [
    {
      "type": "Feature",
      "properties": {
        "norad_id": 40894,
        "name": "GAOFEN-9 01",
        "group": "resource",
        "lat": -36.511072689015364,
        "lon": 24.677873542941605,
        "alt_km": 629.2471155039138,
        "timestamp": "2025-12-05T16:54:14.327048+00:00",
        "meta_object_name": "GAOFEN-9 01",
        "meta_object_id": "2015-047A",
        "meta_epoch": "2025-12-05T07:20:59.528256",
        "meta_mean_motion": 14.82393062,
        "meta_eccentricity": 0.0028871,
        "meta_inclination": 97.6551,
        "meta_ra_of_asc_node": 18.5829,
        "meta_arg_of_pericenter": 57.7977,
        "meta_mean_anomaly": 302.6031,
        "meta_ephemeris_type": 0,
        "meta_classification_type": "U",
        "meta_norad_cat_id": 40894,
        "meta_element_set_no": 999,
        "meta_rev_at_epoch": 55146,
        "meta_bstar": 0.0003029481,
        "meta_mean_motion_dot": 2.393e-05,
        "meta_mean_motion_ddot": 0,
        "tle_line1": "1 40894U 15047A   25339.30624454  .00002393  00000+0  30295-3 0  9990",
        "tle_line2": "2 40894  97.6551  18.5829 0028871  57.7977 302.6031 14.82393062551465"
      },
      "geometry": {
        "type": "Point",
        "coordinates": [
          24.677873542941605,
          -36.511072689015364
        ]
      }
    },
    {
      "type": "Feature",
      "properties": {
        "norad_id": 41026,
        "name": "YAOGAN-28",
        "group": "resource",
        "lat": 42.85947228157412,
        "lon": -55.490443588066846,
        "alt_km": 481.74178337076864,
        "timestamp": "2025-12-05T16:54:14.327057+00:00",
        "meta_object_name": "YAOGAN-28",
        "meta_object_id": "2015-064A",
        "meta_epoch": "2025-12-05T08:25:42.553344",
        "meta_mean_motion": 15.2415977,
        "meta_eccentricity": 0.00120312,
        "meta_inclination": 97.2803,
        "meta_ra_of_asc_node": 117.3535,
        "meta_arg_of_pericenter": 150.5937,
        "meta_mean_anomaly": 209.598,
        "meta_ephemeris_type": 0,
        "meta_classification_type": "U",
        "meta_norad_cat_id": 41026,
        "meta_element_set_no": 999,
        "meta_rev_at_epoch": 56112,
        "meta_bstar": 0.00063693762,
        "meta_mean_motion_dot": 0.0001548,
        "meta_mean_motion_ddot": 0,
        "tle_line1": "1 41026U 15064A   25339.35118696  .00015480  00000+0  63694-3 0  9998",
        "tle_line2": "2 41026  97.2803 117.3535 0012031 150.5937 209.5980 15.24159770561125"
      },
      "geometry": {
        "type": "Point",
        "coordinates": [
          -55.490443588066846,
          42.85947228157412
        ]
      }
    },
    {
      "type": "Feature",
      "properties": {
        "norad_id": 41038,
        "name": "YAOGAN-29",
        "group": "resource",
        "lat": -19.239169317798776,
        "lon": -179.96813790654647,
        "alt_km": 625.8269533820458,
        "timestamp": "2025-12-05T16:54:14.327066+00:00",
        "meta_object_name": "YAOGAN-29",
        "meta_object_id": "2015-069A",
        "meta_epoch": "2025-12-05T07:54:37.922976",
        "meta_mean_motion": 14.82870076,
        "meta_eccentricity": 6.147e-05,
        "meta_inclination": 98.0226,
        "meta_ra_of_asc_node": 2.4773,
        "meta_arg_of_pericenter": 0.4437,
        "meta_mean_anomaly": 359.6777,
        "meta_ephemeris_type": 0,
        "meta_classification_type": "U",
        "meta_norad_cat_id": 41038,
        "meta_element_set_no": 999,
        "meta_rev_at_epoch": 54189,
        "meta_bstar": 0.00012497488,
        "meta_mean_motion_dot": 9.58e-06,
        "meta_mean_motion_ddot": 0,
        "tle_line1": "1 41038U 15069A   25339.32960559  .00000958  00000+0  12497-3 0  9995",
        "tle_line2": "2 41038  98.0226   2.4773 0000614   0.4437 359.6777 14.82870076541891"
      },
      "geometry": {
        "type": "Point",
        "coordinates": [
          -179.96813790654647,
          -19.239169317798776
        ]
      }
    },
    {
      "type": "Feature",
      "properties": {
        "norad_id": 41167,
        "name": "KENT RIDGE 1",
        "group": "resource",
        "lat": 12.862177252573328,
        "lon": -38.00775576495001,
        "alt_km": 491.36113302560807,
        "timestamp": "2025-12-05T16:54:14.327076+00:00",
        "meta_object_name": "KENT RIDGE 1",
        "meta_object_id": "2015-077B",
        "meta_epoch": "2025-12-05T00:54:40.679712",
        "meta_mean_motion": 15.21542687,
        "meta_eccentricity": 0.00086345,
        "meta_inclination": 14.9802,
        "meta_ra_of_asc_node": 268.2874,
        "meta_arg_of_pericenter": 21.5668,
        "meta_mean_anomaly": 338.5016,
        "meta_ephemeris_type": 0,
        "meta_classification_type": "U",
        "meta_norad_cat_id": 41167,
        "meta_element_set_no": 999,
        "meta_rev_at_epoch": 55146,
        "meta_bstar": 0.00033434694,
        "meta_mean_motion_dot": 8.534e-05,
        "meta_mean_motion_ddot": 0,
        "tle_line1": "1 41167U 15077B   25339.03797083  .00008534  00000+0  33435-3 0  9998",
        "tle_line2": "2 41167  14.9802 268.2874 0008634  21.5668 338.5016 15.21542687551469"
      },
      "geometry": {
        "type": "Point",
        "coordinates": [
          -38.00775576495001,
          12.862177252573328
        ]
      }
    },
    {
      "type": "Feature",
      "properties": {
        "norad_id": 41194,
        "name": "GAOFEN-4",
        "group": "resource",
        "lat": 0.009404923846736296,
        "lon": 73.961198870525,
        "alt_km": 35791.81365127099,
        "timestamp": "2025-12-05T16:54:14.327088+00:00",
        "meta_object_name": "GAOFEN-4",
        "meta_object_id": "2015-083A",
        "meta_epoch": "2025-12-05T07:21:04.974912",
        "meta_mean_motion": 1.00272673,
        "meta_eccentricity": 0.00036632,
        "meta_inclination": 0.1503,
        "meta_ra_of_asc_node": 80.8866,
        "meta_arg_of_pericenter": 105.4934,
        "meta_mean_anomaly": 103.9528,
        "meta_ephemeris_type": 0,
        "meta_classification_type": "U",
        "meta_norad_cat_id": 41194,
        "meta_element_set_no": 999,
        "meta_rev_at_epoch": 3658,
        "meta_bstar": 0,
        "meta_mean_motion_dot": -3.23e-06,
        "meta_mean_motion_ddot": 0,
        "tle_line1": "1 41194U 15083A   25339.30630758 -.00000323  00000+0  00000+0 0  9997",
        "tle_line2": "2 41194   0.1503  80.8866 0003663 105.4934 103.9528  1.00272673 36588"
      },
      "geometry": {
        "type": "Point",
        "coordinates": [
          73.961198870525,
          0.009404923846736296
        ]
      }
    },
    {
      "type": "Feature",
      "properties": {
        "norad_id": 41240,
        "name": "JASON-3",
        "group": "resource",
        "lat": 63.187533916094786,
        "lon": -69.00186290218416,
        "alt_km": 1309.2850128752762,
        "timestamp": "2025-12-05T16:54:14.327098+00:00",
        "meta_object_name": "JASON-3",
        "meta_object_id": "2016-002A",
        "meta_epoch": "2025-12-05T07:03:12.862368",
        "meta_mean_motion": 12.87626193,
        "meta_eccentricity": 0.00071347,
        "meta_inclination": 66.0392,
        "meta_ra_of_asc_node": 173.4787,
        "meta_arg_of_pericenter": 270.3906,
        "meta_mean_anomaly": 89.6295,
        "meta_ephemeris_type": 0,
        "meta_classification_type": "U",
        "meta_norad_cat_id": 41240,
        "meta_element_set_no": 999,
        "meta_rev_at_epoch": 46228,
        "meta_bstar": 0.00020849834,
        "meta_mean_motion_dot": -9e-08,
        "meta_mean_motion_ddot": 0,
        "tle_line1": "1 41240U 16002A   25339.29389887 -.00000009  00000+0  20850-3 0  9993",
        "tle_line2": "2 41240  66.0392 173.4787 0007134 270.3906  89.6295 12.87626193462284"
      },
      "geometry": {
        "type": "Point",
        "coordinates": [
          -69.00186290218416,
          63.187533916094786
        ]
      }
    },
    {
      "type": "Feature",
      "properties": {
        "norad_id": 41335,
        "name": "SENTINEL-3A",
        "group": "resource",
        "lat": -57.02781280693124,
        "lon": -148.7085382125302,
        "alt_km": 810.2787673887087,
        "timestamp": "2025-12-05T16:54:14.327107+00:00",
        "meta_object_name": "SENTINEL-3A",
        "meta_object_id": "2016-011A",
        "meta_epoch": "2025-12-05T07:22:35.064192",
        "meta_mean_motion": 14.26742248,
        "meta_eccentricity": 9.724e-05,
        "meta_inclination": 98.6217,
        "meta_ra_of_asc_node": 44.4259,
        "meta_arg_of_pericenter": 91.7055,
        "meta_mean_anomaly": 268.4237,
        "meta_ephemeris_type": 0,
        "meta_classification_type": "U",
        "meta_norad_cat_id": 41335,
        "meta_element_set_no": 999,
        "meta_rev_at_epoch": 51041,
        "meta_bstar": 0.00014829654,
        "meta_mean_motion_dot": 3.15e-06,
        "meta_mean_motion_ddot": 0,
        "tle_line1": "1 41335U 16011A   25339.30735028  .00000315  00000+0  14830-3 0  9992",
        "tle_line2": "2 41335  98.6217  44.4259 0000972  91.7055 268.4237 14.26742248510417"
      },
      "geometry": {
        "type": "Point",
        "coordinates": [
          -148.7085382125302,
          -57.02781280693124
        ]
      }
    }
  ]
}